{"fetched_at":"2026-03-29T02:12:04Z","count":15717,"tles":[{"name":"GAOFEN-11 03","line1":"1 49492U 21107A   26086.61647251  .00000847  00000+0  38299-4 0  9996","line2":"2 49492  97.2192 133.8804 0005742   0.8173 359.3073 15.23527404242218","category":"Other"}]}